     3.04           N: GNSS NAV DATA    C: COMPASS          RINEX VERSION / TYPE
JPS2RIN v.2.0.191   JAVAD GNSS          20210714 015020 UTC PGM / RUN BY / DATE
    18                                                      LEAP SECONDS
BDUT -6.5192580223D-09 0.000000000D+00      0  810          TIME SYSTEM CORR
KOKV                                    MARKER NAME         COMMENT
40424M004                               MARKER NUMBER       COMMENT
 -5543838.3609 -2054586.6103  2387810.1225                  COMMENT
                                                            END OF HEADER
C28 2021 07 14 01 00 00-5.092436913401D-05 4.556355293062D-12 0.000000000000D+00
     1.000000000000D+00 1.086406250000D+02 3.464787179436D-09-1.887743748996D+00
     5.457084625959D-06 1.744558103383D-04 7.830560207367D-06 5.282622123718D+03
     2.628000000000D+05-1.536682248116D-08 1.310566750549D+00 1.676380634308D-08
     9.662403351941D-01 2.046718750000D+02 2.806111229659D+00-6.745995283496D-09
     2.810831368123D-10 0.000000000000D+00 8.100000000000D+02
     2.000000000000D+00 0.000000000000D+00-4.400000000000D-09-4.400000000000D-09
     2.652000000000D+05 0.000000000000D+00
